[{"OBJECT_NAME":"HST","OBJECT_ID":"1990-037B","EPOCH":"2026-04-25T14:02:48.111648","MEAN_MOTION":15.30144545,"ECCENTRICITY":0.00016451,"INCLINATION":28.4745,"RA_OF_ASC_NODE":79.9164,"ARG_OF_PERICENTER":280.6914,"MEAN_ANOMALY":79.3497,"EPHEMERIS_TYPE":0,"CLASSIFICATION_TYPE":"U","NORAD_CAT_ID":20580,"ELEMENT_SET_NO":999,"REV_AT_EPOCH":78050,"BSTAR":0.00020815249,"MEAN_MOTION_DOT":6.48e-5,"MEAN_MOTION_DDOT":0},{"OBJECT_NAME":"POLAR","OBJECT_ID":"1996-013A","EPOCH":"2026-04-24T21:23:43.556640","MEAN_MOTION":1.29845728,"ECCENTRICITY":0.641688,"INCLINATION":79.8018,"RA_OF_ASC_NODE":227.6689,"ARG_OF_PERICENTER":210.9026,"MEAN_ANOMALY":86.6658,"EPHEMERIS_TYPE":0,"CLASSIFICATION_TYPE":"U","NORAD_CAT_ID":23802,"ELEMENT_SET_NO":999,"REV_AT_EPOCH":14416,"BSTAR":0,"MEAN_MOTION_DOT":3.2e-7,"MEAN_MOTION_DDOT":0},{"OBJECT_NAME":"SWAS","OBJECT_ID":"1998-071A","EPOCH":"2026-04-25T20:41:24.830880","MEAN_MOTION":15.09254072,"ECCENTRICITY":0.00073112,"INCLINATION":69.8979,"RA_OF_ASC_NODE":2.419,"ARG_OF_PERICENTER":312.1745,"MEAN_ANOMALY":47.8797,"EPHEMERIS_TYPE":0,"CLASSIFICATION_TYPE":"U","NORAD_CAT_ID":25560,"ELEMENT_SET_NO":999,"REV_AT_EPOCH":48937,"BSTAR":0.00028480013,"MEAN_MOTION_DOT":4.444e-5,"MEAN_MOTION_DDOT":0},{"OBJECT_NAME":"CXO","OBJECT_ID":"1999-040B","EPOCH":"2026-04-26T11:39:03.576384","MEAN_MOTION":0.37809726,"ECCENTRICITY":0.7921578,"INCLINATION":55.3936,"RA_OF_ASC_NODE":118.0844,"ARG_OF_PERICENTER":310.6209,"MEAN_ANOMALY":359.8842,"EPHEMERIS_TYPE":0,"CLASSIFICATION_TYPE":"U","NORAD_CAT_ID":25867,"ELEMENT_SET_NO":999,"REV_AT_EPOCH":1712,"BSTAR":0,"MEAN_MOTION_DOT":6.35e-6,"MEAN_MOTION_DDOT":0},{"OBJECT_NAME":"XMM-NEWTON","OBJECT_ID":"1999-066A","EPOCH":"2026-04-27T11:42:44.677440","MEAN_MOTION":0.50130113,"ECCENTRICITY":0.46893703,"INCLINATION":64.7433,"RA_OF_ASC_NODE":283.632,"ARG_OF_PERICENTER":65.8291,"MEAN_ANOMALY":0.0919,"EPHEMERIS_TYPE":0,"CLASSIFICATION_TYPE":"U","NORAD_CAT_ID":25989,"ELEMENT_SET_NO":999,"REV_AT_EPOCH":2275,"BSTAR":0,"MEAN_MOTION_DOT":-2.2e-7,"MEAN_MOTION_DDOT":0},{"OBJECT_NAME":"TERRA","OBJECT_ID":"1999-068A","EPOCH":"2026-04-25T21:35:55.379328","MEAN_MOTION":14.61060188,"ECCENTRICITY":0.00032127,"INCLINATION":97.9503,"RA_OF_ASC_NODE":167.5082,"ARG_OF_PERICENTER":56.7601,"MEAN_ANOMALY":355.4269,"EPHEMERIS_TYPE":0,"CLASSIFICATION_TYPE":"U","NORAD_CAT_ID":25994,"ELEMENT_SET_NO":999,"REV_AT_EPOCH":40197,"BSTAR":8.5264945e-5,"MEAN_MOTION_DOT":3.74e-6,"MEAN_MOTION_DDOT":0},{"OBJECT_NAME":"CLUSTER II-FM7 (SAMBA)","OBJECT_ID":"2000-041A","EPOCH":"2026-04-26T19:37:20.969184","MEAN_MOTION":0.44809102,"ECCENTRICITY":0.89922964,"INCLINATION":149.6713,"RA_OF_ASC_NODE":42.1462,"ARG_OF_PERICENTER":258.689,"MEAN_ANOMALY":0.4419,"EPHEMERIS_TYPE":0,"CLASSIFICATION_TYPE":"U","NORAD_CAT_ID":26410,"ELEMENT_SET_NO":999,"REV_AT_EPOCH":2007,"BSTAR":0,"MEAN_MOTION_DOT":2.042e-5,"MEAN_MOTION_DDOT":0},{"OBJECT_NAME":"CLUSTER II-FM8 (TANGO)","OBJECT_ID":"2000-045B","EPOCH":"2026-04-26T15:11:14.906688","MEAN_MOTION":0.44399945,"ECCENTRICITY":0.89958136,"INCLINATION":149.9394,"RA_OF_ASC_NODE":43.1014,"ARG_OF_PERICENTER":259.4942,"MEAN_ANOMALY":0.9419,"EPHEMERIS_TYPE":0,"CLASSIFICATION_TYPE":"U","NORAD_CAT_ID":26464,"ELEMENT_SET_NO":999,"REV_AT_EPOCH":2006,"BSTAR":0,"MEAN_MOTION_DOT":2.138e-5,"MEAN_MOTION_DDOT":0},{"OBJECT_NAME":"ODIN","OBJECT_ID":"2001-007A","EPOCH":"2026-04-25T15:38:12.582528","MEAN_MOTION":15.63195176,"ECCENTRICITY":0.00019665,"INCLINATION":97.3973,"RA_OF_ASC_NODE":153.7627,"ARG_OF_PERICENTER":40.6172,"MEAN_ANOMALY":319.5233,"EPHEMERIS_TYPE":0,"CLASSIFICATION_TYPE":"U","NORAD_CAT_ID":26702,"ELEMENT_SET_NO":999,"REV_AT_EPOCH":38116,"BSTAR":0.00053518022,"MEAN_MOTION_DOT":0.00048977,"MEAN_MOTION_DDOT":0},{"OBJECT_NAME":"TIMED","OBJECT_ID":"2001-055B","EPOCH":"2026-04-25T18:04:27.602400","MEAN_MOTION":14.9516643,"ECCENTRICITY":0.00017773,"INCLINATION":74.0685,"RA_OF_ASC_NODE":340.5874,"ARG_OF_PERICENTER":212.0989,"MEAN_ANOMALY":148.0088,"EPHEMERIS_TYPE":0,"CLASSIFICATION_TYPE":"U","NORAD_CAT_ID":26998,"ELEMENT_SET_NO":999,"REV_AT_EPOCH":32298,"BSTAR":8.9382572e-5,"MEAN_MOTION_DOT":9.42e-6,"MEAN_MOTION_DDOT":0},{"OBJECT_NAME":"CORIOLIS","OBJECT_ID":"2003-001A","EPOCH":"2026-04-25T18:30:13.269888","MEAN_MOTION":14.19929625,"ECCENTRICITY":0.00141123,"INCLINATION":98.7145,"RA_OF_ASC_NODE":123.4535,"ARG_OF_PERICENTER":8.9832,"MEAN_ANOMALY":351.1594,"EPHEMERIS_TYPE":0,"CLASSIFICATION_TYPE":"U","NORAD_CAT_ID":27640,"ELEMENT_SET_NO":999,"REV_AT_EPOCH":20678,"BSTAR":7.2886025e-5,"MEAN_MOTION_DOT":1.11e-6,"MEAN_MOTION_DDOT":0},{"OBJECT_NAME":"SORCE","OBJECT_ID":"2003-004A","EPOCH":"2026-04-25T16:01:04.200672","MEAN_MOTION":15.03418116,"ECCENTRICITY":0.00165362,"INCLINATION":39.9899,"RA_OF_ASC_NODE":201.2547,"ARG_OF_PERICENTER":31.4179,"MEAN_ANOMALY":328.7599,"EPHEMERIS_TYPE":0,"CLASSIFICATION_TYPE":"U","NORAD_CAT_ID":27651,"ELEMENT_SET_NO":999,"REV_AT_EPOCH":26399,"BSTAR":0.00021142399,"MEAN_MOTION_DOT":2.783e-5,"MEAN_MOTION_DDOT":0},{"OBJECT_NAME":"MOST","OBJECT_ID":"2003-031D","EPOCH":"2026-04-25T21:45:08.022240","MEAN_MOTION":14.21311206,"ECCENTRICITY":0.0010684,"INCLINATION":98.7064,"RA_OF_ASC_NODE":124.3592,"ARG_OF_PERICENTER":48.1551,"MEAN_ANOMALY":312.0536,"EPHEMERIS_TYPE":0,"CLASSIFICATION_TYPE":"U","NORAD_CAT_ID":27843,"ELEMENT_SET_NO":999,"REV_AT_EPOCH":18328,"BSTAR":5.5866604e-5,"MEAN_MOTION_DOT":7.8e-7,"MEAN_MOTION_DDOT":0},{"OBJECT_NAME":"SCISAT 1","OBJECT_ID":"2003-036A","EPOCH":"2026-04-25T21:20:23.365248","MEAN_MOTION":14.81386338,"ECCENTRICITY":0.00075146,"INCLINATION":73.9288,"RA_OF_ASC_NODE":275.246,"ARG_OF_PERICENTER":342.0621,"MEAN_ANOMALY":18.0289,"EPHEMERIS_TYPE":0,"CLASSIFICATION_TYPE":"U","NORAD_CAT_ID":27858,"ELEMENT_SET_NO":999,"REV_AT_EPOCH":22370,"BSTAR":9.1579009e-5,"MEAN_MOTION_DOT":6.8e-6,"MEAN_MOTION_DDOT":0},{"OBJECT_NAME":"SWIFT","OBJECT_ID":"2004-047A","EPOCH":"2026-04-25T15:04:44.203296","MEAN_MOTION":15.63536129,"ECCENTRICITY":0.00016045,"INCLINATION":20.5525,"RA_OF_ASC_NODE":228.8093,"ARG_OF_PERICENTER":312.5282,"MEAN_ANOMALY":47.5027,"EPHEMERIS_TYPE":0,"CLASSIFICATION_TYPE":"U","NORAD_CAT_ID":28485,"ELEMENT_SET_NO":999,"REV_AT_EPOCH":17861,"BSTAR":0.00043687517,"MEAN_MOTION_DOT":0.00043357,"MEAN_MOTION_DDOT":0},{"OBJECT_NAME":"HINODE (SOLAR-B)","OBJECT_ID":"2006-041A","EPOCH":"2026-04-25T18:58:28.798176","MEAN_MOTION":14.68544355,"ECCENTRICITY":0.00189739,"INCLINATION":98.058,"RA_OF_ASC_NODE":132.7121,"ARG_OF_PERICENTER":94.3749,"MEAN_ANOMALY":265.9625,"EPHEMERIS_TYPE":0,"CLASSIFICATION_TYPE":"U","NORAD_CAT_ID":29479,"ELEMENT_SET_NO":999,"REV_AT_EPOCH":4718,"BSTAR":0.00011437471,"MEAN_MOTION_DOT":6.16e-6,"MEAN_MOTION_DDOT":0},{"OBJECT_NAME":"SHIJIAN-6 02A (SJ-6 02A)","OBJECT_ID":"2006-046A","EPOCH":"2026-04-25T21:40:49.985184","MEAN_MOTION":15.1633298,"ECCENTRICITY":0.00023669,"INCLINATION":97.6419,"RA_OF_ASC_NODE":156.5886,"ARG_OF_PERICENTER":354.602,"MEAN_ANOMALY":5.5187,"EPHEMERIS_TYPE":0,"CLASSIFICATION_TYPE":"U","NORAD_CAT_ID":29505,"ELEMENT_SET_NO":999,"REV_AT_EPOCH":6434,"BSTAR":0.00026011204,"MEAN_MOTION_DOT":4.975e-5,"MEAN_MOTION_DDOT":0}]
